IRIDIUM 159             
1 43578U 18061K   24362.33747859  .00000785  00000+0  27304-3 0  9994
2 43578  86.3964 281.0310 0002243  84.0118 276.1333 14.34219789336435
IRIDIUM 180             
1 43922U 19002A   24362.33697753  .00000131  00000+0  39833-4 0  9996
2 43922  86.3976 217.9105 0001974  86.0773 274.0649 14.34218383312047
IRIDIUM 176             
1 43923U 19002B   24362.55394867  .00002402  00000+0  37700-3 0  9994
2 43923  86.6105 217.8262 0002839  70.5535 289.5988 14.72255718320291
IRIDIUM 168             
1 43924U 19002C   24362.33062068  .00000669  00000+0  23186-3 0  9992
2 43924  86.3980 217.9755 0002023  86.4626 273.6801 14.34225394312025
IRIDIUM 173             
1 43925U 19002D   24362.10864103  .00000012  00000+0 -28622-5 0  9993
2 43925  86.3983 217.9794 0001826  85.0197 275.1208 14.34220370311970
IRIDIUM 169             
1 43926U 19002E   24362.42079941  .00001068  00000+0  34270-3 0  9992
2 43926  86.4224 249.4592 0001258  29.2639 330.8629 14.38605451313054
IRIDIUM 172             
1 43927U 19002F   24362.52091158  .00000161  00000+0  50513-4 0  9990
2 43927  86.3976 217.8138 0002126  86.0998 274.0441 14.34219075312045
IRIDIUM 175             
1 43928U 19002G   24362.48067011  .00001002  00000+0  15500-3 0  9998
2 43928  86.1522 180.1360 0000959 130.5005 229.6296 14.72251241320277
